[
    {
        "Altitude(m)": 605470.7989717233,
        "Argument of Periapsis(deg)": 0.0,
        "Eccentricity": 0.0,
        "Inclination(deg)": 60.0,
        "Latitude(deg)": 27.988235283446656,
        "Longitude(deg)": 102.26294659015815,
        "Mean Anomaly(deg)": 147.2727,
        "RAAN(deg)": 40.0,
        "Satellite Name": "Test1 185",
        "Satellite Number": 185,
        "Semi-Major Axis(m)": 6980739.136638005,
        "Time(s)": 0
    },
    {
        "Altitude(m)": 605395.8367461731,
        "Argument of Periapsis(deg)": 0.00010418945913296404,
        "Eccentricity": 0.0,
        "Inclination(deg)": 60.0,
        "Latitude(deg)": 27.47392598743001,
        "Longitude(deg)": 102.61613447081507,
        "Mean Anomaly(deg)": 147.8928061454618,
        "RAAN(deg)": 39.99957995086026,
        "Satellite Name": "Test1 185",
        "Satellite Number": 185,
        "Semi-Major Axis(m)": 6980739.136638005,
        "Time(s)": 10
    },
    {
        "Altitude(m)": 605322.67717595,
        "Argument of Periapsis(deg)": 0.0002083789182659281,
        "Eccentricity": 0.0,
        "Inclination(deg)": 60.0,
        "Latitude(deg)": 26.958470894764243,
        "Longitude(deg)": 102.96567413851787,
        "Mean Anomaly(deg)": 148.51291229092362,
        "RAAN(deg)": 39.99915990172052,
        "Satellite Name": "Test1 185",
        "Satellite Number": 185,
        "Semi-Major Axis(m)": 6980739.136638005,
        "Time(s)": 20
    },
    {
        "Altitude(m)": 605251.3759356205,
        "Argument of Periapsis(deg)": 0.00031256837739889213,
        "Eccentricity": 0.0,
        "Inclination(deg)": 60.0,
        "Latitude(deg)": 26.44190450787062,
        "Longitude(deg)": 103.31167024327658,
        "Mean Anomaly(deg)": 149.13301843638547,
        "RAAN(deg)": 39.998739852580776,
        "Satellite Name": "Test1 185",
        "Satellite Number": 185,
        "Semi-Major Axis(m)": 6980739.136638005,
        "Time(s)": 30
    },
    {
        "Altitude(m)": 605181.9879718203,
        "Argument of Periapsis(deg)": 0.0004167578365318562,
        "Eccentricity": 0.0,
        "Inclination(deg)": 60.0,
        "Latitude(deg)": 25.92426047487344,
        "Longitude(deg)": 103.65422570261246,
        "Mean Anomaly(deg)": 149.75312458184732,
        "RAAN(deg)": 39.998319803441035,
        "Satellite Name": "Test1 185",
        "Satellite Number": 185,
        "Semi-Major Axis(m)": 6980739.136638005,
        "Time(s)": 40
    },
    {
        "Altitude(m)": 605114.5674743034,
        "Argument of Periapsis(deg)": 0.0005209472956648203,
        "Eccentricity": 0.0,
        "Inclination(deg)": 60.0,
        "Latitude(deg)": 25.405571622154408,
        "Longitude(deg)": 103.99344075768022,
        "Mean Anomaly(deg)": 150.37323072730916,
        "RAAN(deg)": 39.99789975430128,
        "Satellite Name": "Test1 185",
        "Satellite Number": 185,
        "Semi-Major Axis(m)": 6980739.136638005,
        "Time(s)": 50
    },
    {
        "Altitude(m)": 605049.1678473222,
        "Argument of Periapsis(deg)": 0.0006251367547977843,
        "Eccentricity": 0.0,
        "Inclination(deg)": 60.0,
        "Latitude(deg)": 24.88586998579018,
        "Longitude(deg)": 104.32941354146635,
        "Mean Anomaly(deg)": 150.993336872771,
        "RAAN(deg)": 39.99747970516154,
        "Satellite Name": "Test1 185",
        "Satellite Number": 185,
        "Semi-Major Axis(m)": 6980739.136638005,
        "Time(s)": 60
    },
    {
        "Altitude(m)": 604985.8416813347,
        "Argument of Periapsis(deg)": 0.0007293262139307483,
        "Eccentricity": 0.0,
        "Inclination(deg)": 60.0,
        "Latitude(deg)": 24.365186841913136,
        "Longitude(deg)": 104.66224064612996,
        "Mean Anomaly(deg)": 151.6134430182328,
        "RAAN(deg)": 39.997059656021804,
        "Satellite Name": "Test1 185",
        "Satellite Number": 185,
        "Semi-Major Axis(m)": 6980739.136638005,
        "Time(s)": 70
    },
    {
        "Altitude(m)": 604924.6407251173,
        "Argument of Periapsis(deg)": 0.0008335156730637124,
        "Eccentricity": 0.0,
        "Inclination(deg)": 60.0,
        "Latitude(deg)": 23.843552736032628,
        "Longitude(deg)": 104.99201617656442,
        "Mean Anomaly(deg)": 152.23354916369462,
        "RAAN(deg)": 39.996639606882056,
        "Satellite Name": "Test1 185",
        "Satellite Number": 185,
        "Semi-Major Axis(m)": 6980739.136638005,
        "Time(s)": 80
    },
    {
        "Altitude(m)": 604865.6158581855,
        "Argument of Periapsis(deg)": 0.0009377051321966765,
        "Eccentricity": 0.0,
        "Inclination(deg)": 60.0,
        "Latitude(deg)": 23.320997511355184,
        "Longitude(deg)": 105.31883231588759,
        "Mean Anomaly(deg)": 152.85365530915647,
        "RAAN(deg)": 39.996219557742315,
        "Satellite Name": "Test1 185",
        "Satellite Number": 185,
        "Semi-Major Axis(m)": 6980739.136638005,
        "Time(s)": 90
    },
    {
        "Altitude(m)": 604808.8170636373,
        "Argument of Periapsis(deg)": 0.0010418945913296407,
        "Eccentricity": 0.0,
        "Inclination(deg)": 60.0,
        "Latitude(deg)": 22.7975503361392,
        "Longitude(deg)": 105.64277988995735,
        "Mean Anomaly(deg)": 153.4737614546183,
        "RAAN(deg)": 39.99579950860257,
        "Satellite Name": "Test1 185",
        "Satellite Number": 185,
        "Semi-Major Axis(m)": 6980739.136638005,
        "Time(s)": 100
    },
    {
        "Altitude(m)": 604754.2934013961,
        "Argument of Periapsis(deg)": 0.0011460840504626045,
        "Eccentricity": 0.0,
        "Inclination(deg)": 60.0,
        "Latitude(deg)": 22.273239730121038,
        "Longitude(deg)": 105.96394741801103,
        "Mean Anomaly(deg)": 154.09386760008013,
        "RAAN(deg)": 39.99537945946283,
        "Satellite Name": "Test1 185",
        "Satellite Number": 185,
        "Semi-Major Axis(m)": 6980739.136638005,
        "Time(s)": 110
    },
    {
        "Altitude(m)": 604702.0929818532,
        "Argument of Periapsis(deg)": 0.0012502735095955685,
        "Eccentricity": 0.0,
        "Inclination(deg)": 60.0,
        "Latitude(deg)": 21.74809359004691,
        "Longitude(deg)": 106.28242167516252,
        "Mean Anomaly(deg)": 154.71397374554192,
        "RAAN(deg)": 39.99495941032309,
        "Satellite Name": "Test1 185",
        "Satellite Number": 185,
        "Semi-Major Axis(m)": 6980739.136638005,
        "Time(s)": 120
    },
    {
        "Altitude(m)": 604652.2629399585,
        "Argument of Periapsis(deg)": 0.0013544629687285324,
        "Eccentricity": 0.0,
        "Inclination(deg)": 60.0,
        "Latitude(deg)": 21.222139214344523,
        "Longitude(deg)": 106.59828825386975,
        "Mean Anomaly(deg)": 155.33407989100377,
        "RAAN(deg)": 39.99453936118334,
        "Satellite Name": "Test1 185",
        "Satellite Number": 185,
        "Semi-Major Axis(m)": 6980739.136638005,
        "Time(s)": 130
    },
    {
        "Altitude(m)": 604604.8494097326,
        "Argument of Periapsis(deg)": 0.0014586524278614966,
        "Eccentricity": 0.0,
        "Inclination(deg)": 60.0,
        "Latitude(deg)": 20.695403326969615,
        "Longitude(deg)": 106.91163061149116,
        "Mean Anomaly(deg)": 155.95418603646564,
        "RAAN(deg)": 39.9941193120436,
        "Satellite Name": "Test1 185",
        "Satellite Number": 185,
        "Semi-Major Axis(m)": 6980739.136638005,
        "Time(s)": 140
    },
    {
        "Altitude(m)": 604559.8974992506,
        "Argument of Periapsis(deg)": 0.0015628418869944607,
        "Eccentricity": 0.0,
        "Inclination(deg)": 60.0,
        "Latitude(deg)": 20.16791210045711,
        "Longitude(deg)": 107.22253062968028,
        "Mean Anomaly(deg)": 156.57429218192746,
        "RAAN(deg)": 39.99369926290386,
        "Satellite Name": "Test1 185",
        "Satellite Number": 185,
        "Semi-Major Axis(m)": 6980739.136638005,
        "Time(s)": 150
    },
    {
        "Altitude(m)": 604517.4512660917,
        "Argument of Periapsis(deg)": 0.0016670313461274247,
        "Eccentricity": 0.0,
        "Inclination(deg)": 60.0,
        "Latitude(deg)": 19.639691178210285,
        "Longitude(deg)": 107.53106917274401,
        "Mean Anomaly(deg)": 157.19439832738928,
        "RAAN(deg)": 39.99327921376412,
        "Satellite Name": "Test1 185",
        "Satellite Number": 185,
        "Semi-Major Axis(m)": 6980739.136638005,
        "Time(s)": 160
    },
    {
        "Altitude(m)": 604477.5536932782,
        "Argument of Periapsis(deg)": 0.0017712208052603888,
        "Eccentricity": 0.0,
        "Inclination(deg)": 60.0,
        "Latitude(deg)": 19.110765696059048,
        "Longitude(deg)": 107.83732513209777,
        "Mean Anomaly(deg)": 157.8145044728511,
        "RAAN(deg)": 39.99285916462437,
        "Satellite Name": "Test1 185",
        "Satellite Number": 185,
        "Semi-Major Axis(m)": 6980739.136638005,
        "Time(s)": 170
    },
    {
        "Altitude(m)": 604440.2466656889,
        "Argument of Periapsis(deg)": 0.001875410264393353,
        "Eccentricity": 0.0,
        "Inclination(deg)": 60.0,
        "Latitude(deg)": 18.581160303115674,
        "Longitude(deg)": 108.14137598257555,
        "Mean Anomaly(deg)": 158.43461061831295,
        "RAAN(deg)": 39.99243911548463,
        "Satellite Name": "Test1 185",
        "Satellite Number": 185,
        "Semi-Major Axis(m)": 6980739.136638005,
        "Time(s)": 180
    },
    {
        "Altitude(m)": 604405.5709470251,
        "Argument of Periapsis(deg)": 0.0019795997235263173,
        "Eccentricity": 0.0,
        "Inclination(deg)": 60.0,
        "Latitude(deg)": 18.050899181957917,
        "Longitude(deg)": 108.4432983377327,
        "Mean Anomaly(deg)": 159.05471676377476,
        "RAAN(deg)": 39.99201906634489,
        "Satellite Name": "Test1 185",
        "Satellite Number": 185,
        "Semi-Major Axis(m)": 6980739.136638005,
        "Time(s)": 190
    }
]